[Satellite]
VERSION=1.1
NAME=IOD-1 GEMS
NICKNAME=IOD-1 GEMS
TLE1=1 44385U 98067QK  20158.03054608  .00013501  00000-0  17056-3 0  9998
TLE2=2 44385  51.6411  29.9554 0001308 275.1730  84.9114 15.59877272 52709
STATUS=0
